{
  "type": "FeatureCollection",
  "features": [
    {
      "type": "Feature",
      "properties": {
        "norad_id": 40894,
        "name": "GAOFEN-9 01",
        "group": "resource",
        "lat": 34.5968329707183,
        "lon": 22.695734628588568,
        "alt_km": 599.8572937444014,
        "timestamp": "2025-12-15T04:01:20.100002+00:00",
        "meta_object_name": "GAOFEN-9 01",
        "meta_object_id": "2015-047A",
        "meta_epoch": "2025-12-14T08:25:35.372640",
        "meta_mean_motion": 14.8242718,
        "meta_eccentricity": 0.00282794,
        "meta_inclination": 97.6542,
        "meta_ra_of_asc_node": 27.237,
        "meta_arg_of_pericenter": 29.1617,
        "meta_mean_anomaly": 331.1169,
        "meta_ephemeris_type": 0,
        "meta_classification_type": "U",
        "meta_norad_cat_id": 40894,
        "meta_element_set_no": 999,
        "meta_rev_at_epoch": 55280,
        "meta_bstar": 0.0002041237,
        "meta_mean_motion_dot": 1.596e-05,
        "meta_mean_motion_ddot": 0,
        "tle_line1": "1 40894U 15047A   25348.35110385  .00001596  00000+0  20412-3 0  9992",
        "tle_line2": "2 40894  97.6542  27.2370 0028279  29.1617 331.1169 14.82427180552806"
      },
      "geometry": {
        "type": "Point",
        "coordinates": [
          22.695734628588568,
          34.5968329707183
        ]
      }
    },
    {
      "type": "Feature",
      "properties": {
        "norad_id": 41026,
        "name": "YAOGAN-28",
        "group": "resource",
        "lat": -12.61594839262535,
        "lon": -54.74877581422822,
        "alt_km": 494.8732343555357,
        "timestamp": "2025-12-15T04:01:20.100012+00:00",
        "meta_object_name": "YAOGAN-28",
        "meta_object_id": "2015-064A",
        "meta_epoch": "2025-12-14T08:16:34.478400",
        "meta_mean_motion": 15.24390418,
        "meta_eccentricity": 0.00124264,
        "meta_inclination": 97.28,
        "meta_ra_of_asc_node": 126.0915,
        "meta_arg_of_pericenter": 120.8754,
        "meta_mean_anomaly": 239.3708,
        "meta_ephemeris_type": 0,
        "meta_classification_type": "U",
        "meta_norad_cat_id": 41026,
        "meta_element_set_no": 999,
        "meta_rev_at_epoch": 56249,
        "meta_bstar": 0.00041055258,
        "meta_mean_motion_dot": 0.00010016,
        "meta_mean_motion_ddot": 0,
        "tle_line1": "1 41026U 15064A   25348.34484350  .00010016  00000+0  41055-3 0  9997",
        "tle_line2": "2 41026  97.2800 126.0915 0012426 120.8754 239.3708 15.24390418562492"
      },
      "geometry": {
        "type": "Point",
        "coordinates": [
          -54.74877581422822,
          -12.61594839262535
        ]
      }
    },
    {
      "type": "Feature",
      "properties": {
        "norad_id": 41038,
        "name": "YAOGAN-29",
        "group": "resource",
        "lat": -71.36126995683772,
        "lon": 37.06493870827417,
        "alt_km": 627.4689155577016,
        "timestamp": "2025-12-15T04:01:20.100022+00:00",
        "meta_object_name": "YAOGAN-29",
        "meta_object_id": "2015-069A",
        "meta_epoch": "2025-12-14T08:55:05.458944",
        "meta_mean_motion": 14.82887575,
        "meta_eccentricity": 9.32e-06,
        "meta_inclination": 98.0225,
        "meta_ra_of_asc_node": 11.5487,
        "meta_arg_of_pericenter": 239.4401,
        "meta_mean_anomaly": 120.6803,
        "meta_ephemeris_type": 0,
        "meta_classification_type": "U",
        "meta_norad_cat_id": 41038,
        "meta_element_set_no": 999,
        "meta_rev_at_epoch": 54323,
        "meta_bstar": 0.00016764214,
        "meta_mean_motion_dot": 1.304e-05,
        "meta_mean_motion_ddot": 0,
        "tle_line1": "1 41038U 15069A   25348.37159096  .00001304  00000+0  16764-3 0  9993",
        "tle_line2": "2 41038  98.0225  11.5487 0000093 239.4401 120.6803 14.82887575543237"
      },
      "geometry": {
        "type": "Point",
        "coordinates": [
          37.06493870827417,
          -71.36126995683772
        ]
      }
    },
    {
      "type": "Feature",
      "properties": {
        "norad_id": 41167,
        "name": "KENT RIDGE 1",
        "group": "resource",
        "lat": -2.693553059685826,
        "lon": 23.269257420533865,
        "alt_km": 493.1134730672402,
        "timestamp": "2025-12-15T04:01:20.100032+00:00",
        "meta_object_name": "KENT RIDGE 1",
        "meta_object_id": "2015-077B",
        "meta_epoch": "2025-12-14T05:09:57.078144",
        "meta_mean_motion": 15.21651645,
        "meta_eccentricity": 0.0008536,
        "meta_inclination": 14.9784,
        "meta_ra_of_asc_node": 200.1922,
        "meta_arg_of_pericenter": 151.6516,
        "meta_mean_anomaly": 208.4271,
        "meta_ephemeris_type": 0,
        "meta_classification_type": "U",
        "meta_norad_cat_id": 41167,
        "meta_element_set_no": 999,
        "meta_rev_at_epoch": 55286,
        "meta_bstar": 0.00020248052,
        "meta_mean_motion_dot": 5.475e-05,
        "meta_mean_motion_ddot": 0,
        "tle_line1": "1 41167U 15077B   25348.21524396  .00005475  00000+0  20248-3 0  9992",
        "tle_line2": "2 41167  14.9784 200.1922 0008536 151.6516 208.4271 15.21651645552863"
      },
      "geometry": {
        "type": "Point",
        "coordinates": [
          23.269257420533865,
          -2.693553059685826
        ]
      }
    },
    {
      "type": "Feature",
      "properties": {
        "norad_id": 41194,
        "name": "GAOFEN-4",
        "group": "resource",
        "lat": 0.011130530412406978,
        "lon": -109.89650249708227,
        "alt_km": 35780.96953008662,
        "timestamp": "2025-12-15T04:01:20.100066+00:00",
        "meta_object_name": "GAOFEN-4",
        "meta_object_id": "2015-083A",
        "meta_epoch": "2025-12-14T07:04:18.935040",
        "meta_mean_motion": 1.00268943,
        "meta_eccentricity": 0.00033745,
        "meta_inclination": 0.1744,
        "meta_ra_of_asc_node": 81.3484,
        "meta_arg_of_pericenter": 103.7373,
        "meta_mean_anomaly": 109.8873,
        "meta_ephemeris_type": 0,
        "meta_classification_type": "U",
        "meta_norad_cat_id": 41194,
        "meta_element_set_no": 999,
        "meta_rev_at_epoch": 3667,
        "meta_bstar": 0,
        "meta_mean_motion_dot": -3.16e-06,
        "meta_mean_motion_ddot": 0,
        "tle_line1": "1 41194U 15083A   25348.29466360 -.00000316  00000+0  00000+0 0  9993",
        "tle_line2": "2 41194   0.1744  81.3484 0003374 103.7373 109.8873  1.00268943 36677"
      },
      "geometry": {
        "type": "Point",
        "coordinates": [
          -109.89650249708227,
          0.011130530412406978
        ]
      }
    },
    {
      "type": "Feature",
      "properties": {
        "norad_id": 41240,
        "name": "JASON-3",
        "group": "resource",
        "lat": 39.878843481200335,
        "lon": 174.5291559529277,
        "alt_km": 1310.7281959989396,
        "timestamp": "2025-12-15T04:01:20.100080+00:00",
        "meta_object_name": "JASON-3",
        "meta_object_id": "2016-002A",
        "meta_epoch": "2025-12-14T07:17:12.106176",
        "meta_mean_motion": 12.87626611,
        "meta_eccentricity": 0.00071511,
        "meta_inclination": 66.0391,
        "meta_ra_of_asc_node": 154.5362,
        "meta_arg_of_pericenter": 270.9162,
        "meta_mean_anomaly": 89.1038,
        "meta_ephemeris_type": 0,
        "meta_classification_type": "U",
        "meta_norad_cat_id": 41240,
        "meta_element_set_no": 999,
        "meta_rev_at_epoch": 46344,
        "meta_bstar": 0.00017307431,
        "meta_mean_motion_dot": -1.8e-07,
        "meta_mean_motion_ddot": 0,
        "tle_line1": "1 41240U 16002A   25348.30361234 -.00000018  00000+0  17307-3 0  9994",
        "tle_line2": "2 41240  66.0391 154.5362 0007151 270.9162  89.1038 12.87626611463445"
      },
      "geometry": {
        "type": "Point",
        "coordinates": [
          174.5291559529277,
          39.878843481200335
        ]
      }
    },
    {
      "type": "Feature",
      "properties": {
        "norad_id": 41335,
        "name": "SENTINEL-3A",
        "group": "resource",
        "lat": -35.7554615587915,
        "lon": -132.13336437419767,
        "alt_km": 809.3384156926613,
        "timestamp": "2025-12-15T04:01:20.100091+00:00",
        "meta_object_name": "SENTINEL-3A",
        "meta_object_id": "2016-011A",
        "meta_epoch": "2025-12-14T06:48:53.788032",
        "meta_mean_motion": 14.26731516,
        "meta_eccentricity": 9.407e-05,
        "meta_inclination": 98.6314,
        "meta_ra_of_asc_node": 53.2743,
        "meta_arg_of_pericenter": 91.3619,
        "meta_mean_anomaly": 268.7669,
        "meta_ephemeris_type": 0,
        "meta_classification_type": "U",
        "meta_norad_cat_id": 41335,
        "meta_element_set_no": 999,
        "meta_rev_at_epoch": 51169,
        "meta_bstar": 0.00011242488,
        "meta_mean_motion_dot": 2.28e-06,
        "meta_mean_motion_ddot": 0,
        "tle_line1": "1 41335U 16011A   25348.28395588  .00000228  00000+0  11242-3 0  9999",
        "tle_line2": "2 41335  98.6314  53.2743 0000940  91.3619 268.7669 14.26731516511697"
      },
      "geometry": {
        "type": "Point",
        "coordinates": [
          -132.13336437419767,
          -35.7554615587915
        ]
      }
    }
  ]
}